{
  "norad_id": 66820,
  "name": "KOMPSAT-7",
  "history": [
    {
      "epoch": "2026-03-24T03:10:58.823328",
      "apogee_km": 567.9992945637377,
      "perigee_km": 556.4558026319273,
      "latitude_deg": -63.5004553636365,
      "longitude_deg": 130.73202591994777,
      "semi_major_axis_km": 6940.364548597832,
      "eccentricity": 0.00083162,
      "inclination_deg": 97.6797,
      "raan_deg": 32.5556,
      "arg_perigee_deg": 294.9939,
      "mean_anomaly_deg": 65.0421,
      "mean_motion_rev_day": 15.01513834
    }
  ]
}